{"fetched_at":"2026-03-30T06:02:59Z","count":15439,"tles":[{"name":"STARLINK-34704","line1":"1 65746U 25216N   26087.84137993  .00047062  00000+0  15910-2 0  9997","line2":"2 65746  53.1580 244.0839 0001027  77.1256 282.9860 15.30200811 29467","category":"Starlink"}]}