{
  "norad_id": 65746,
  "name": "STARLINK-34704",
  "history": [
    {
      "epoch": "2026-03-28T20:11:35.225952",
      "apogee_km": 475.91703519738985,
      "perigee_km": 474.5082606437645,
      "latitude_deg": 47.998477715138996,
      "longitude_deg": 115.37247327994555,
      "semi_major_axis_km": 6853.349647920577,
      "eccentricity": 0.00010278,
      "inclination_deg": 53.158,
      "raan_deg": 244.0839,
      "arg_perigee_deg": 77.1256,
      "mean_anomaly_deg": 282.986,
      "mean_motion_rev_day": 15.30200811
    }
  ]
}